start=new Date('2021-09-24T00:00:00.000Z').valueOf();
sats=[{"TLE_LINE2":"2 48640  53.0552 223.9572 0001646  65.4345 264.4902 15.06401498  3567","ARG_OF_PERICENTER":"65.4345","OBJECT_NAME":"STARLINK-2736","SITE":"AFETR","ECCENTRICITY":"0.00016460","TLE_LINE1":"1 48640U 21044C   21266.91668981  .00004754  00000-0  33785-3 0  9997","MEAN_ELEMENT_THEORY":"SGP4","TIME_SYSTEM":"UTC","FILE":"3125337","EPOCH":"2021-09-23T22:00:01.999584","CLASSIFICATION_TYPE":"U","PERIAPSIS":"546.069","LAUNCH_DATE":"2021-05-26","CENTER_NAME":"EARTH","MEAN_MOTION":"15.06401498","SEMIMAJOR_AXIS":"6925.344","INCLINATION":"53.0552","OBJECT_TYPE":"PAYLOAD","REV_AT_EPOCH":"356","MEAN_MOTION_DOT":"0.00004754","RCS_SIZE":"LARGE","GP_ID":"185350928","OBJECT_ID":"2021-044C","MEAN_MOTION_DDOT":"0.0000000000000","PERIOD":"95.592","NORAD_CAT_ID":"48640","REF_FRAME":"TEME","DECAY_DATE":null,"ELEMENT_SET_NO":"999","COUNTRY_CODE":"US","EPHEMERIS_TYPE":"0","BSTAR":"0.00033785000000","APOAPSIS":"548.349","RA_OF_ASC_NODE":"223.9572","MEAN_ANOMALY":"264.4902"},{"ECCENTRICITY":"0.00013360","SITE":"AFETR","OBJECT_NAME":"STARLINK-2754","ARG_OF_PERICENTER":"69.8076","TLE_LINE2":"2 48641  53.0551 230.2537 0001336  69.8076 290.3057 15.06403211 18328","TIME_SYSTEM":"UTC","MEAN_ELEMENT_THEORY":"SGP4","TLE_LINE1":"1 48641U 21044D   21266.62970657 -.00000632  00000-0 -23534-4 0  9997","CLASSIFICATION_TYPE":"U","EPOCH":"2021-09-23T15:06:46.647648","FILE":"3125337","SEMIMAJOR_AXIS":"6925.339","MEAN_MOTION":"15.06403211","CENTER_NAME":"EARTH","LAUNCH_DATE":"2021-05-26","PERIAPSIS":"546.278","REV_AT_EPOCH":"1832","OBJECT_TYPE":"PAYLOAD","INCLINATION":"53.0551","MEAN_MOTION_DDOT":"0.0000000000000","OBJECT_ID":"2021-044D","GP_ID":"185351663","RCS_SIZE":"LARGE","MEAN_MOTION_DOT":"-0.00000632","COUNTRY_CODE":"US","ELEMENT_SET_NO":"999","DECAY_DATE":null,"REF_FRAME":"TEME","NORAD_CAT_ID":"48641","PERIOD":"95.592","MEAN_ANOMALY":"290.3057","RA_OF_ASC_NODE":"230.2537","APOAPSIS":"548.129","BSTAR":"-0.00002353400000","EPHEMERIS_TYPE":"0"},{"ECCENTRICITY":"0.00014520","SITE":"AFETR","ARG_OF_PERICENTER":"57.6807","OBJECT_NAME":"STARLINK-2646","TLE_LINE2":"2 48642  53.0539 231.6756 0001452  57.6807 302.4323 15.06396312 18277","MEAN_ELEMENT_THEORY":"SGP4","TIME_SYSTEM":"UTC","TLE_LINE1":"1 48642U 21044E   21266.31177133 -.00001050  00000-0 -51576-4 0  9994","CLASSIFICATION_TYPE":"U","EPOCH":"2021-09-23T07:28:57.042912","FILE":"3124856","SEMIMAJOR_AXIS":"6925.360","MEAN_MOTION":"15.06396312","CENTER_NAME":"EARTH","LAUNCH_DATE":"2021-05-26","PERIAPSIS":"546.219","REV_AT_EPOCH":"1827","OBJECT_TYPE":"PAYLOAD","INCLINATION":"53.0539","OBJECT_ID":"2021-044E","MEAN_MOTION_DDOT":"0.0000000000000","GP_ID":"185317590","RCS_SIZE":"LARGE","MEAN_MOTION_DOT":"-0.00001050","COUNTRY_CODE":"US","ELEMENT_SET_NO":"999","DECAY_DATE":null,"REF_FRAME":"TEME","NORAD_CAT_ID":"48642","PERIOD":"95.592","MEAN_ANOMALY":"302.4323","RA_OF_ASC_NODE":"231.6756","APOAPSIS":"548.230","BSTAR":"-0.00005157600000","EPHEMERIS_TYPE":"0"},{"SITE":"AFETR","ECCENTRICITY":"0.00012960","TLE_LINE2":"2 48643  53.0543 231.7573 0001296  51.8865 308.2241 15.06401702 18270","ARG_OF_PERICENTER":"51.8865","OBJECT_NAME":"STARLINK-2704","TIME_SYSTEM":"UTC","MEAN_ELEMENT_THEORY":"SGP4","TLE_LINE1":"1 48643U 21044F   21266.29428616  .00001415  00000-0  11388-3 0  9996","FILE":"3124856","CLASSIFICATION_TYPE":"U","EPOCH":"2021-09-23T07:03:46.324224","MEAN_MOTION":"15.06401702","SEMIMAJOR_AXIS":"6925.343","LAUNCH_DATE":"2021-05-26","PERIAPSIS":"546.311","CENTER_NAME":"EARTH","REV_AT_EPOCH":"1827","INCLINATION":"53.0543","OBJECT_TYPE":"PAYLOAD","GP_ID":"185317269","OBJECT_ID":"2021-044F","MEAN_MOTION_DDOT":"0.0000000000000","RCS_SIZE":"LARGE","MEAN_MOTION_DOT":"0.00001415","REF_FRAME":"TEME","NORAD_CAT_ID":"48643","COUNTRY_CODE":"US","DECAY_DATE":null,"ELEMENT_SET_NO":"999","PERIOD":"95.592","RA_OF_ASC_NODE":"231.7573","MEAN_ANOMALY":"308.2241","BSTAR":"0.00011388000000","EPHEMERIS_TYPE":"0","APOAPSIS":"548.106"},{"BSTAR":"0.00001548000000","EPHEMERIS_TYPE":"0","APOAPSIS":"548.012","RA_OF_ASC_NODE":"230.2809","MEAN_ANOMALY":"297.3913","PERIOD":"95.592","REF_FRAME":"TEME","NORAD_CAT_ID":"48644","COUNTRY_CODE":"US","DECAY_DATE":null,"ELEMENT_SET_NO":"999","RCS_SIZE":"LARGE","MEAN_MOTION_DOT":"-0.00000051","GP_ID":"185351252","OBJECT_ID":"2021-044G","MEAN_MOTION_DDOT":"0.0000000000000","INCLINATION":"53.0558","OBJECT_TYPE":"PAYLOAD","REV_AT_EPOCH":"1832","PERIAPSIS":"546.408","LAUNCH_DATE":"2021-05-26","CENTER_NAME":"EARTH","MEAN_MOTION":"15.06401190","SEMIMAJOR_AXIS":"6925.345","FILE":"3125337","CLASSIFICATION_TYPE":"U","EPOCH":"2021-09-23T14:56:09.818304","TLE_LINE1":"1 48644U 21044G   21266.62233586 -.00000051  00000-0  15480-4 0  9998","MEAN_ELEMENT_THEORY":"SGP4","TIME_SYSTEM":"UTC","TLE_LINE2":"2 48644  53.0558 230.2809 0001158  62.7194 297.3913 15.06401190 18327","ARG_OF_PERICENTER":"62.7194","OBJECT_NAME":"STARLINK-2695","SITE":"AFETR","ECCENTRICITY":"0.00011580"},{"RCS_SIZE":"LARGE","MEAN_MOTION_DOT":"0.00001263","GP_ID":"185351558","OBJECT_ID":"2021-044H","MEAN_MOTION_DDOT":"0.0000000000000","INCLINATION":"53.0535","OBJECT_TYPE":"PAYLOAD","REV_AT_EPOCH":"1832","BSTAR":"0.00010369000000","EPHEMERIS_TYPE":"0","APOAPSIS":"548.119","RA_OF_ASC_NODE":"230.2982","MEAN_ANOMALY":"298.2613","PERIOD":"95.592","REF_FRAME":"TEME","NORAD_CAT_ID":"48645","COUNTRY_CODE":"US","ELEMENT_SET_NO":"999","DECAY_DATE":null,"TLE_LINE1":"1 48645U 21044H   21266.61864158  .00001263  00000-0  10369-3 0  9998","TIME_SYSTEM":"UTC","MEAN_ELEMENT_THEORY":"SGP4","TLE_LINE2":"2 48645  53.0535 230.2982 0001307  61.8508 298.2613 15.06399782 18320","ARG_OF_PERICENTER":"61.8508","OBJECT_NAME":"STARLINK-2733","SITE":"AFETR","ECCENTRICITY":"0.00013070","PERIAPSIS":"546.309","LAUNCH_DATE":"2021-05-26","CENTER_NAME":"EARTH","MEAN_MOTION":"15.06399782","SEMIMAJOR_AXIS":"6925.349","FILE":"3125337","CLASSIFICATION_TYPE":"U","EPOCH":"2021-09-23T14:50:50.632512"},{"PERIOD":"95.593","ELEMENT_SET_NO":"999","DECAY_DATE":null,"COUNTRY_CODE":"US","NORAD_CAT_ID":"48646","REF_FRAME":"TEME","APOAPSIS":"548.135","EPHEMERIS_TYPE":"0","BSTAR":"-0.00001585200000","MEAN_ANOMALY":"308.5347","RA_OF_ASC_NODE":"230.3169","OBJECT_TYPE":"PAYLOAD","INCLINATION":"53.0543","REV_AT_EPOCH":"1832","MEAN_MOTION_DOT":"-0.00000517","RCS_SIZE":"LARGE","OBJECT_ID":"2021-044J","MEAN_MOTION_DDOT":"0.0000000000000","GP_ID":"185351026","EPOCH":"2021-09-23T14:45:33.052896","CLASSIFICATION_TYPE":"U","FILE":"3125337","CENTER_NAME":"EARTH","LAUNCH_DATE":"2021-05-26","PERIAPSIS":"546.336","SEMIMAJOR_AXIS":"6925.370","MEAN_MOTION":"15.06392882","ARG_OF_PERICENTER":"51.5759","OBJECT_NAME":"STARLINK-2732","TLE_LINE2":"2 48646  53.0543 230.3169 0001299  51.5759 308.5347 15.06392882 18325","ECCENTRICITY":"0.00012990","SITE":"AFETR","TLE_LINE1":"1 48646U 21044J   21266.61496589 -.00000517  00000-0 -15852-4 0  9994","TIME_SYSTEM":"UTC","MEAN_ELEMENT_THEORY":"SGP4"},{"ECCENTRICITY":"0.00010450","SITE":"AFETR","ARG_OF_PERICENTER":"53.9761","OBJECT_NAME":"STARLINK-2691","TLE_LINE2":"2 48647  53.0551 230.3388 0001045  53.9761 306.1324 15.06397607 18325","TIME_SYSTEM":"UTC","MEAN_ELEMENT_THEORY":"SGP4","TLE_LINE1":"1 48647U 21044K   21266.61128033  .00002143  00000-0  16269-3 0  9998","CLASSIFICATION_TYPE":"U","EPOCH":"2021-09-23T14:40:14.620512","FILE":"3125337","SEMIMAJOR_AXIS":"6925.356","MEAN_MOTION":"15.06397607","CENTER_NAME":"EARTH","LAUNCH_DATE":"2021-05-26","PERIAPSIS":"546.497","REV_AT_EPOCH":"1832","OBJECT_TYPE":"PAYLOAD","INCLINATION":"53.0551","MEAN_MOTION_DDOT":"0.0000000000000","OBJECT_ID":"2021-044K","GP_ID":"185351129","RCS_SIZE":"LARGE","MEAN_MOTION_DOT":"0.00002143","COUNTRY_CODE":"US","ELEMENT_SET_NO":"999","DECAY_DATE":null,"REF_FRAME":"TEME","NORAD_CAT_ID":"48647","PERIOD":"95.592","MEAN_ANOMALY":"306.1324","RA_OF_ASC_NODE":"230.3388","APOAPSIS":"547.945","BSTAR":"0.00016269000000","EPHEMERIS_TYPE":"0"},{"MEAN_MOTION":"15.06416132","SEMIMAJOR_AXIS":"6925.299","LAUNCH_DATE":"2021-05-26","PERIAPSIS":"546.380","CENTER_NAME":"EARTH","FILE":"3125337","CLASSIFICATION_TYPE":"U","EPOCH":"2021-09-23T14:38:52.203552","TIME_SYSTEM":"UTC","MEAN_ELEMENT_THEORY":"SGP4","TLE_LINE1":"1 48648U 21044L   21266.61032643  .00002544  00000-0  18951-3 0  9995","SITE":"AFETR","ECCENTRICITY":"0.00011320","TLE_LINE2":"2 48648  53.0550 230.3394 0001132  59.7946 300.3155 15.06416132 18321","ARG_OF_PERICENTER":"59.7946","OBJECT_NAME":"STARLINK-2521","RA_OF_ASC_NODE":"230.3394","MEAN_ANOMALY":"300.3155","BSTAR":"0.00018951000000","EPHEMERIS_TYPE":"0","APOAPSIS":"547.948","REF_FRAME":"TEME","NORAD_CAT_ID":"48648","COUNTRY_CODE":"US","ELEMENT_SET_NO":"999","DECAY_DATE":null,"PERIOD":"95.591","GP_ID":"185350929","OBJECT_ID":"2021-044L","MEAN_MOTION_DDOT":"0.0000000000000","RCS_SIZE":"LARGE","MEAN_MOTION_DOT":"0.00002544","REV_AT_EPOCH":"1832","INCLINATION":"53.0550","OBJECT_TYPE":"PAYLOAD"},{"MEAN_ANOMALY":"302.0128","RA_OF_ASC_NODE":"230.3790","APOAPSIS":"547.977","BSTAR":"0.00019255000000","EPHEMERIS_TYPE":"0","COUNTRY_CODE":"US","DECAY_DATE":null,"ELEMENT_SET_NO":"999","REF_FRAME":"TEME","NORAD_CAT_ID":"48649","PERIOD":"95.591","OBJECT_ID":"2021-044M","MEAN_MOTION_DDOT":"0.0000000000000","GP_ID":"185351664","RCS_SIZE":"LARGE","MEAN_MOTION_DOT":"0.00002589","REV_AT_EPOCH":"1831","OBJECT_TYPE":"PAYLOAD","INCLINATION":"53.0498","SEMIMAJOR_AXIS":"6925.310","MEAN_MOTION":"15.06412488","CENTER_NAME":"EARTH","LAUNCH_DATE":"2021-05-26","PERIAPSIS":"546.374","CLASSIFICATION_TYPE":"U","EPOCH":"2021-09-23T14:34:55.807104","FILE":"3125337","TIME_SYSTEM":"UTC","MEAN_ELEMENT_THEORY":"SGP4","TLE_LINE1":"1 48649U 21044M   21266.60759036  .00002589  00000-0  19255-3 0  9994","ECCENTRICITY":"0.00011570","SITE":"AFETR","OBJECT_NAME":"STARLINK-2673","ARG_OF_PERICENTER":"58.0974","TLE_LINE2":"2 48649  53.0498 230.3790 0001157  58.0974 302.0128 15.06412488 18311"}];
